{"type": "FeatureCollection", "features": [ {"type": "Feature", "properties": {"norad_id": 41785, "name": "ALSAT 1B", "group": "resource", "lat": 11.963332311062855, "lon": -166.97006610407695, "alt_km": 657.3078941427102, "timestamp": "2025-12-26T03:50:11.745181+00:00", "meta": {"OBJECT_NAME": "ALSAT 1B", "OBJECT_ID": "2016-059C", "EPOCH": "2025-12-25T20:33:08.906976", "MEAN_MOTION": 14.7208725, "ECCENTRICITY": 0.0010742, "INCLINATION": 97.7809, "RA_OF_ASC_NODE": 11.0793, "ARG_OF_PERICENTER": 66.7583, "MEAN_ANOMALY": 293.4755, "EPHEMERIS_TYPE": 0, "CLASSIFICATION_TYPE": "U", "NORAD_CAT_ID": 41785, "ELEMENT_SET_NO": 999, "REV_AT_EPOCH": 49507, "BSTAR": 2.7284e-05, "MEAN_MOTION_DOT": 1.25e-06, "MEAN_MOTION_DDOT": 0}, "tle": {"line1": "1 41785U 16059C   25359.85635309  .00000125  00000+0  27284-4 0  9993", "line2": "2 41785  97.7809  11.0793 0010742  66.7583 293.4755 14.72087250495073"}}, "geometry": {"type": "Point", "coordinates": [-166.97006610407695, 11.963332311062855]}}, {"type": "Feature", "properties": {"norad_id": 41787, "name": "PATHFINDER 1", "group": "resource", "lat": 16.766273568164703, "lon": -0.06035708824278614, "alt_km": 650.9556040024954, "timestamp": "2025-12-26T03:50:11.745191+00:00", "meta": {"OBJECT_NAME": "PATHFINDER 1", "OBJECT_ID": "2016-059E", "EPOCH": "2025-12-25T13:01:50.658816", "MEAN_MOTION": 14.67343137, "ECCENTRICITY": 0.0029583, "INCLINATION": 97.8139, "RA_OF_ASC_NODE": 1.7224, "ARG_OF_PERICENTER": 42.0938, "MEAN_ANOMALY": 318.2533, "EPHEMERIS_TYPE": 0, "CLASSIFICATION_TYPE": "U", "NORAD_CAT_ID": 41787, "ELEMENT_SET_NO": 999, "REV_AT_EPOCH": 49424, "BSTAR": 0.00015941, "MEAN_MOTION_DOT": 8.59e-06, "MEAN_MOTION_DDOT": 0}, "tle": {"line1": "1 41787U 16059E   25359.54294744  .00000859  00000+0  15941-3 0  9995", "line2": "2 41787  97.8139   1.7224 0029583  42.0938 318.2533 14.67343137494242"}}, "geometry": {"type": "Point", "coordinates": [-0.06035708824278614, 16.766273568164703]}}, {"type": "Feature", "properties": {"norad_id": 41790, "name": "SCATSAT 1", "group": "resource", "lat": -31.285556171141423, "lon": -127.99573558888335, "alt_km": 661.6271072967265, "timestamp": "2025-12-26T03:50:11.745201+00:00", "meta": {"OBJECT_NAME": "SCATSAT 1", "OBJECT_ID": "2016-059H", "EPOCH": "2025-12-25T17:08:45.595968", "MEAN_MOTION": 14.78977295, "ECCENTRICITY": 0.005646, "INCLINATION": 98.1446, "RA_OF_ASC_NODE": 56.5458, "ARG_OF_PERICENTER": 87.1429, "MEAN_ANOMALY": 273.6241, "EPHEMERIS_TYPE": 0, "CLASSIFICATION_TYPE": "U", "NORAD_CAT_ID": 41790, "ELEMENT_SET_NO": 999, "REV_AT_EPOCH": 7594, "BSTAR": 0.00020775, "MEAN_MOTION_DOT": 1.519e-05, "MEAN_MOTION_DDOT": 0}, "tle": {"line1": "1 41790U 16059H   25359.71441662  .00001519  00000+0  20775-3 0  9996", "line2": "2 41790  98.1446  56.5458 0056460  87.1429 273.6241 14.78977295 75949"}}, "geometry": {"type": "Point", "coordinates": [-127.99573558888335, -31.285556171141423]}}, {"type": "Feature", "properties": {"norad_id": 41875, "name": "GOKTURK 1A", "group": "resource", "lat": -54.6785978338012, "lon": 60.68955115670496, "alt_km": 691.9917314445784, "timestamp": "2025-12-26T03:50:11.745212+00:00", "meta": {"OBJECT_NAME": "GOKTURK 1A", "OBJECT_ID": "2016-073A", "EPOCH": "2025-12-25T20:11:48.865920", "MEAN_MOTION": 14.6279506, "ECCENTRICITY": 0.0001274, "INCLINATION": 98.1424, "RA_OF_ASC_NODE": 252.0323, "ARG_OF_PERICENTER": 82.9814, "MEAN_ANOMALY": 277.1533, "EPHEMERIS_TYPE": 0, "CLASSIFICATION_TYPE": "U", "NORAD_CAT_ID": 41875, "ELEMENT_SET_NO": 999, "REV_AT_EPOCH": 48348, "BSTAR": 0.00015431, "MEAN_MOTION_DOT": 7.4e-06, "MEAN_MOTION_DDOT": 0}, "tle": {"line1": "1 41875U 16073A   25359.84153780  .00000740  00000+0  15431-3 0  9999", "line2": "2 41875  98.1424 252.0323 0001274  82.9814 277.1533 14.62795060483483"}}, "geometry": {"type": "Point", "coordinates": [60.68955115670496, -54.6785978338012]}}, {"type": "Feature", "properties": {"norad_id": 41877, "name": "RESOURCESAT-2A", "group": "resource", "lat": 78.15293400945191, "lon": -62.65340099740025, "alt_km": 812.7926877976852, "timestamp": "2025-12-26T03:50:11.745222+00:00", "meta": {"OBJECT_NAME": "RESOURCESAT-2A", "OBJECT_ID": "2016-074A", "EPOCH": "2025-12-25T20:37:14.143008", "MEAN_MOTION": 14.21604499, "ECCENTRICITY": 0.0001624, "INCLINATION": 98.7736, "RA_OF_ASC_NODE": 69.6377, "ARG_OF_PERICENTER": 198.4085, "MEAN_ANOMALY": 161.7033, "EPHEMERIS_TYPE": 0, "CLASSIFICATION_TYPE": "U", "NORAD_CAT_ID": 41877, "ELEMENT_SET_NO": 999, "REV_AT_EPOCH": 46967, "BSTAR": -1.7075e-05, "MEAN_MOTION_DOT": -8.2e-07, "MEAN_MOTION_DDOT": 0}, "tle": {"line1": "1 41877U 16074A   25359.85919147 -.00000082  00000+0 -17075-4 0  9998", "line2": "2 41877  98.7736  69.6377 0001624 198.4085 161.7033 14.21604499469678"}}, "geometry": {"type": "Point", "coordinates": [-62.65340099740025, 78.15293400945191]}}, {"type": "Feature", "properties": {"norad_id": 41948, "name": "CARTOSAT-2D", "group": "resource", "lat": 44.67243986806557, "lon": -115.12906478171993, "alt_km": 501.0312139224834, "timestamp": "2025-12-26T03:50:11.745232+00:00", "meta": {"OBJECT_NAME": "CARTOSAT-2D", "OBJECT_ID": "2017-008A", "EPOCH": "2025-12-25T19:20:30.319008", "MEAN_MOTION": 15.19193005, "ECCENTRICITY": 0.0005412, "INCLINATION": 97.4367, "RA_OF_ASC_NODE": 57.1029, "ARG_OF_PERICENTER": 115.3278, "MEAN_ANOMALY": 244.8518, "EPHEMERIS_TYPE": 0, "CLASSIFICATION_TYPE": "U", "NORAD_CAT_ID": 41948, "ELEMENT_SET_NO": 999, "REV_AT_EPOCH": 49125, "BSTAR": 0.00021321, "MEAN_MOTION_DOT": 4.42e-05, "MEAN_MOTION_DDOT": 0}, "tle": {"line1": "1 41948U 17008A   25359.80590647  .00004420  00000+0  21321-3 0  9996", "line2": "2 41948  97.4367  57.1029 0005412 115.3278 244.8518 15.19193005491254"}}, "geometry": {"type": "Point", "coordinates": [-115.12906478171993, 44.67243986806557]}}, {"type": "Feature", "properties": {"norad_id": 42063, "name": "SENTINEL-2B", "group": "resource", "lat": 28.678069452220317, "lon": -102.8523516319586, "alt_km": 787.2477396479389, "timestamp": "2025-12-26T03:50:11.745242+00:00", "meta": {"OBJECT_NAME": "SENTINEL-2B", "OBJECT_ID": "2017-013A", "EPOCH": "2025-12-25T20:25:14.220192", "MEAN_MOTION": 14.30815257, "ECCENTRICITY": 0.0001188, "INCLINATION": 98.5697, "RA_OF_ASC_NODE": 72.1119, "ARG_OF_PERICENTER": 89.5256, "MEAN_ANOMALY": 270.6063, "EPHEMERIS_TYPE": 0, "CLASSIFICATION_TYPE": "U", "NORAD_CAT_ID": 42063, "ELEMENT_SET_NO": 999, "REV_AT_EPOCH": 45985, "BSTAR": 1.579e-05, "MEAN_MOTION_DOT": -2e-08, "MEAN_MOTION_DDOT": 0}, "tle": {"line1": "1 42063U 17013A   25359.85085903 -.00000002  00000+0  15790-4 0  9997", "line2": "2 42063  98.5697  72.1119 0001188  89.5256 270.6063 14.30815257459856"}}, "geometry": {"type": "Point", "coordinates": [-102.8523516319586, 28.678069452220317]}}, {"type": "Feature", "properties": {"norad_id": 42767, "name": "CARTOSAT-2E", "group": "resource", "lat": 43.44938819859263, "lon": 50.445264749282195, "alt_km": 505.69648616691666, "timestamp": "2025-12-26T03:50:11.745253+00:00", "meta": {"OBJECT_NAME": "CARTOSAT-2E", "OBJECT_ID": "2017-036C", "EPOCH": "2025-12-25T19:44:23.716608", "MEAN_MOTION": 15.19197894, "ECCENTRICITY": 0.0002532, "INCLINATION": 97.4535, "RA_OF_ASC_NODE": 57.2364, "ARG_OF_PERICENTER": 170.3505, "MEAN_ANOMALY": 189.7779, "EPHEMERIS_TYPE": 0, "CLASSIFICATION_TYPE": "U", "NORAD_CAT_ID": 42767, "ELEMENT_SET_NO": 999, "REV_AT_EPOCH": 47182, "BSTAR": 0.00011282, "MEAN_MOTION_DOT": 2.306e-05, "MEAN_MOTION_DDOT": 0}, "tle": {"line1": "1 42767U 17036C   25359.82249672  .00002306  00000+0  11282-3 0  9994", "line2": "2 42767  97.4535  57.2364 0002532 170.3505 189.7779 15.19197894471825"}}, "geometry": {"type": "Point", "coordinates": [50.445264749282195, 43.44938819859263]}}, {"type": "Feature", "properties": {"norad_id": 42920, "name": "FORMOSAT-5", "group": "resource", "lat": 37.7627536919443, "lon": 67.75993548704882, "alt_km": 725.9244794967362, "timestamp": "2025-12-26T03:50:11.745263+00:00", "meta": {"OBJECT_NAME": "FORMOSAT-5", "OBJECT_ID": "2017-049A", "EPOCH": "2025-12-25T19:23:03.970176", "MEAN_MOTION": 14.50767953, "ECCENTRICITY": 0.0009846, "INCLINATION": 98.2438, "RA_OF_ASC_NODE": 73.8632, "ARG_OF_PERICENTER": 256.772, "MEAN_ANOMALY": 103.2377, "EPHEMERIS_TYPE": 0, "CLASSIFICATION_TYPE": "U", "NORAD_CAT_ID": 42920, "ELEMENT_SET_NO": 999, "REV_AT_EPOCH": 44153, "BSTAR": 7.3108e-05, "MEAN_MOTION_DOT": 2.44e-06, "MEAN_MOTION_DDOT": 0}, "tle": {"line1": "1 42920U 17049A   25359.80768484  .00000244  00000+0  73108-4 0  9999", "line2": "2 42920  98.2438  73.8632 0009846 256.7720 103.2377 14.50767953441535"}}, "geometry": {"type": "Point", "coordinates": [67.75993548704882, 37.7627536919443]}}, {"type": "Feature", "properties": {"norad_id": 42969, "name": "SENTINEL-5P", "group": "resource", "lat": 3.473711757349033, "lon": -61.911580223220554, "alt_km": 829.3691326301005, "timestamp": "2025-12-26T03:50:11.745273+00:00", "meta": {"OBJECT_NAME": "SENTINEL-5P", "OBJECT_ID": "2017-064A", "EPOCH": "2025-12-25T17:40:12.395712", "MEAN_MOTION": 14.19520693, "ECCENTRICITY": 0.0001064, "INCLINATION": 98.7802, "RA_OF_ASC_NODE": 298.2061, "ARG_OF_PERICENTER": 90.9871, "MEAN_ANOMALY": 269.1427, "EPHEMERIS_TYPE": 0, "CLASSIFICATION_TYPE": "U", "NORAD_CAT_ID": 42969, "ELEMENT_SET_NO": 999, "REV_AT_EPOCH": 42495, "BSTAR": 6.8609e-05, "MEAN_MOTION_DOT": 1e-06, "MEAN_MOTION_DDOT": 0}, "tle": {"line1": "1 42969U 17064A   25359.73625458  .00000100  00000+0  68609-4 0  9995", "line2": "2 42969  98.7802 298.2061 0001064  90.9871 269.1427 14.19520693424954"}}, "geometry": {"type": "Point", "coordinates": [-61.911580223220554, 3.473711757349033]}}]}